{
    "links": {
        "self": "http://www.neowsapp.com/rest/v1/neo/3691091?api_key=iIulBulltgU6a56xZRHN4H3l9WmuAYTsLGpBGhQ2"
    },
    "id": "3691091",
    "neo_reference_id": "3691091",
    "name": "(2014 SO260)",
    "designation": "2014 SO260",
    "nasa_jpl_url": "http://ssd.jpl.nasa.gov/sbdb.cgi?sstr=3691091",
    "absolute_magnitude_h": 25.0,
    "estimated_diameter": {
        "kilometers": {
            "estimated_diameter_min": 0.02658,
            "estimated_diameter_max": 0.0594346868
        },
        "meters": {
            "estimated_diameter_min": 26.58,
            "estimated_diameter_max": 59.4346868419
        },
        "miles": {
            "estimated_diameter_min": 0.0165160412,
            "estimated_diameter_max": 0.0369309908
        },
        "feet": {
            "estimated_diameter_min": 87.2047272,
            "estimated_diameter_max": 194.9956979785
        }
    },
    "is_potentially_hazardous_asteroid": false,
    "close_approach_data": [
        {
            "close_approach_date": "2014-09-24",
            "close_approach_date_full": "2014-Sep-24 05:28",
            "epoch_date_close_approach": 1411536480000,
            "relative_velocity": {
                "kilometers_per_second": "14.2513278877",
                "kilometers_per_hour": "51304.7803957358",
                "miles_per_hour": "31878.795352006"
            },
            "miss_distance": {
                "astronomical": "0.0572911551",
                "lunar": "22.2862593339",
                "kilometers": "8570634.772799637",
                "miles": "5325545.4989915106"
            },
            "orbiting_body": "Earth"
        }
    ],
    "orbital_data": {
        "orbit_id": "3",
        "orbit_determination_date": "2017-04-06 08:38:26",
        "first_observation_date": "2014-09-24",
        "last_observation_date": "2014-09-26",
        "data_arc_in_days": 2,
        "observations_used": 38,
        "orbit_uncertainty": "8",
        "minimum_orbit_intersection": ".0567694",
        "jupiter_tisserand_invariant": "2.870",
        "epoch_osculation": "2456925.5",
        "eccentricity": ".6362843280585481",
        "semi_major_axis": "2.895785489747656",
        "inclination": "21.17470853347213",
        "ascending_node_longitude": "359.0832944514098",
        "orbital_period": "1799.898472057777",
        "perihelion_distance": "1.053242565201875",
        "perihelion_argument": "11.36942811510085",
        "aphelion_distance": "4.738328414293437",
        "perihelion_time": "2456933.178347123979",
        "mean_anomaly": "358.4642439517868",
        "mean_motion": ".2000112815187967",
        "equinox": "J2000",
        "orbit_class": {
            "orbit_class_type": "AMO",
            "orbit_class_description": "Near-Earth asteroid orbits similar to that of 1221 Amor",
            "orbit_class_range": "1.017 AU < q (perihelion) < 1.3 AU"
        }
    },
    "is_sentry_object": false
}